[{"OBJECT_NAME":"COSMOS 2503","OBJECT_ID":"2015-009A","EPOCH":"2026-03-09T16:42:37.703808","MEAN_MOTION":15.06275973,"ECCENTRICITY":0.00153206,"INCLINATION":97.8437,"RA_OF_ASC_NODE":123.7175,"ARG_OF_PERICENTER":225.745,"MEAN_ANOMALY":134.252,"EPHEMERIS_TYPE":0,"CLASSIFICATION_TYPE":"U","NORAD_CAT_ID":40420,"ELEMENT_SET_NO":999,"REV_AT_EPOCH":60395,"BSTAR":0.00019589832,"MEAN_MOTION_DOT":2.817e-5,"MEAN_MOTION_DDOT":0},{"OBJECT_NAME":"STARLINK-5743","OBJECT_ID":"2023-020AE","EPOCH":"2026-03-09T21:05:05.615808","MEAN_MOTION":15.02796951,"ECCENTRICITY":0.00046958,"INCLINATION":43.0041,"RA_OF_ASC_NODE":351.0025,"ARG_OF_PERICENTER":34.3722,"MEAN_ANOMALY":325.7423,"EPHEMERIS_TYPE":0,"CLASSIFICATION_TYPE":"U","NORAD_CAT_ID":55597,"ELEMENT_SET_NO":999,"REV_AT_EPOCH":16909,"BSTAR":0.002257492,"MEAN_MOTION_DOT":0.00030642,"MEAN_MOTION_DDOT":0}]
